{
  "type": "FeatureCollection",
  "name": "Sample_Reference_Work_Program",
  "crs": { "type": "name", "properties": { "name": "urn:ogc:def:crs:OGC:1.3:CRS84" } },
  "features": [
    {
      "type": "Feature",
      "properties": {
        "ITEMSEG": "4425211",
        "ROADWAY": "I-4 Corridor",
        "PHASE": "CON",
        "FISCAL_YR": 2026,
        "high_yr_ph": "CON 2026",
        "DESC": "I-4 Beyond the Ultimate Capacity Improvements"
      },
      "geometry": {
        "type": "LineString",
        "coordinates": [
          [-81.4200, 28.6780],
          [-81.4340, 28.6690],
          [-81.4470, 28.6600],
          [-81.4650, 28.6470]
        ]
      }
    },
    {
      "type": "Feature",
      "properties": {
        "ITEMSEG": "4425211",
        "ROADWAY": "I-4 Corridor Auxiliary Lanes",
        "PHASE": "PE",
        "FISCAL_YR": 2025,
        "high_yr_ph": "PE 2025",
        "DESC": "I-4 Auxiliary Lane Preliminary Engineering"
      },
      "geometry": {
        "type": "LineString",
        "coordinates": [
          [-81.4300, 28.6720],
          [-81.4450, 28.6610],
          [-81.4600, 28.6500]
        ]
      }
    },
    {
      "type": "Feature",
      "properties": {
        "ITEMSEG": "4398711",
        "ROADWAY": "I-4 Interchange Modification",
        "PHASE": "ROW",
        "FISCAL_YR": 2027,
        "high_yr_ph": "ROW 2027",
        "DESC": "SR-434 Interchange Right of Way Acquisition"
      },
      "geometry": {
        "type": "LineString",
        "coordinates": [
          [-81.4220, 28.6770],
          [-81.4320, 28.6700],
          [-81.4420, 28.6630]
        ]
      }
    },
    {
      "type": "Feature",
      "properties": {
        "ITEMSEG": "4125331",
        "ROADWAY": "SR-50 Widening",
        "PHASE": "CON",
        "FISCAL_YR": 2028,
        "high_yr_ph": "CON 2028",
        "DESC": "SR-50 4 to 6 lane widening project"
      },
      "geometry": {
        "type": "LineString",
        "coordinates": [
          [-81.2250, 28.5521],
          [-81.2000, 28.5523],
          [-81.1750, 28.5525]
        ]
      }
    }
  ]
}
